INTELSAT 33E (IS-33E)   
1 41748U 16053B   23345.43534604  .00000079  00000+0  00000+0 0  9999
2 41748   0.0160 331.6090 0001613 291.8743  33.1510  1.00270081 27034
INTELSAT 32E (IS-32E)   
1 41945U 17007B   23345.70136167 -.00000239  00000+0  00000+0 0  9999
2 41945   0.0052  68.7303 0000599  58.2456 162.5039  1.00271676 25027
INTELSAT 35E (IS-35E)   
1 42818U 17041A   23345.91796431 -.00000208  00000+0  00000+0 0  9992
2 42818   0.0181 296.2310 0001591 334.2147 105.9087  1.00270781 23605
INTELSAT 37E (IS-37E)   
1 42950U 17059A   23345.97600691 -.00000111  00000+0  00000+0 0  9999
2 42950   0.0172 339.3135 0002444 277.4533 157.0413  1.00272012 22857
AZERSPACE 2 (IS-38)     
1 43632U 18074A   23346.14866164  .00000166  00000+0  00000+0 0  9993
2 43632   0.0187   5.0080 0001145 260.4705 273.7518  1.00270316 19232
HORIZONS-3E             
1 43633U 18074B   23346.10166936 -.00000001  00000+0  00000+0 0  9999
2 43633   0.0251 154.1801 0000623 132.5817 359.4052  1.00270421 19114
AT&T T-16               
1 44333U 19034A   23346.11959604 -.00000086  00000+0  00000+0 0  9990
2 44333   0.0017 355.0003 0000965 113.4939 274.2847  1.00268246 16429
INTELSAT 39 (IS-39)     
1 44476U 19049B   23345.74980161  .00000063  00000+0  00000+0 0  9998
2 44476   0.0184 334.8823 0001053 156.6154 280.5903  1.00270954 15920
GALAXY 30 (G-30)        
1 46114U 20056C   23345.63077512  .00000067  00000+0  00000+0 0  9998
2 46114   0.0122  26.4972 0001808 217.6685 298.0291  1.00267945 12081
GALAXY 33 (G-33)        
1 54026U 22128A   23345.68344793  .00000109  00000+0  00000+0 0  9991
2 54026   0.0147 317.4498 0001637 294.8799 300.8574  1.00271039  4545
GALAXY 34 (G-34)        
1 54027U 22128B   23345.46508010  .00000089  00000+0  00000+0 0  9999
2 54027   0.0293 324.2153 0001388 284.9835 229.2032  1.00270821  4705
GALAXY 31 (G-31)        
1 54243U 22153A   23346.11559299  .00000042  00000+0  00000+0 0  9994
2 54243   0.0147 295.4855 0002438 337.8003  87.9023  1.00271849  3959
GALAXY 32 (G-32)        
1 54244U 22153B   23344.90389634 -.00000143  00000+0  00000+0 0  9997
2 54244   0.0120   2.9048 0002057 313.6792 357.1971  1.00271449  3927
GALAXY 35 (G-35)        
1 54741U 22170A   23345.90630326 -.00000132  00000+0  00000+0 0  9994
2 54741   0.0181 332.7483 0001308 296.2672  44.5172  1.00271584  3687
GALAXY 36 (G-36)        
1 54742U 22170B   23346.12194565 -.00000156  00000+0  00000+0 0  9996
2 54742   0.0011  11.4367 0000961  94.9883 289.0648  1.00271331  3711
GALAXY 37 (G-37)        
1 57493U 23112A   23345.89942847  .00000078  00000+0  00000+0 0  9998
2 57493   0.0174  16.7374 0001684 240.4560  19.9673  1.00271912  1335
IRIDIUM 106             
1 41917U 17003A   23345.87202705  .00000248  00000+0  81663-4 0  9992
2 41917  86.3965 112.3281 0002209  88.0961 272.0487 14.34217211361583
IRIDIUM 103             
1 41918U 17003B   23345.85933457  .00000245  00000+0  80592-4 0  9993
2 41918  86.3964 112.2358 0002248 101.5355 258.6093 14.34218523361612
IRIDIUM 109             
1 41919U 17003C   23345.86567004  .00000253  00000+0  83387-4 0  9990
2 41919  86.3966 112.2775 0001894 100.3975 259.7434 14.34217057361598
IRIDIUM 102             
1 41920U 17003D   23345.90372796  .00000245  00000+0  80341-4 0  9997
2 41920  86.3964 112.2048 0001907  96.5695 263.5718 14.34219591361662
IRIDIUM 105             
1 41921U 17003E   23345.80467582  .00000305  00000+0  10187-3 0  9992
2 41921  86.3973  80.6537 0002151  97.1393 263.0047 14.34214023363508
IRIDIUM 104             
1 41922U 17003F   23345.91641747  .00000239  00000+0  78413-4 0  9995
2 41922  86.3966 112.2281 0002037 102.5824 257.5600 14.34217607361650
IRIDIUM 114             
1 41923U 17003G   23345.78321905  .00000255  00000+0  84086-4 0  9993
2 41923  86.3966 112.2704 0002117  87.8516 272.2922 14.34219553361612
IRIDIUM 108             
1 41924U 17003H   23345.81150631  .00000097  00000+0  27591-4 0  9996
2 41924  86.3970  80.5879 0002252  93.3395 266.8059 14.34215834363479
IRIDIUM 112             
1 41925U 17003J   23345.91008051  .00000245  00000+0  80448-4 0  9991
2 41925  86.3961 112.1017 0001886  98.0988 262.0422 14.34217190361655
IRIDIUM 111             
1 41926U 17003K   23345.75784920  .00000264  00000+0  87080-4 0  9990
2 41926  86.3961 112.2152 0002323 100.2021 259.9437 14.34219711361616
IRIDIUM 113             
1 42803U 17039A   23345.94711618  .00000267  00000+0  88147-4 0  9997
2 42803  86.3968 345.8882 0002157  98.2617 261.8824 14.34220961339575
IRIDIUM 123             
1 42804U 17039B   23345.63975940  .00000248  00000+0  81564-4 0  9999
2 42804  86.3978  17.5078 0002147  97.6416 262.5023 14.34215292338294
IRIDIUM 120             
1 42805U 17039C   23346.08031821  .00000257  00000+0  84815-4 0  9993
2 42805  86.3957 345.7341 0002204  93.4871 266.6576 14.34218785339585
IRIDIUM 115             
1 42806U 17039D   23345.55423216  .00000352  00000+0  98641-4 0  9996
2 42806  86.4494 345.9507 0002287  95.8747 264.2714 14.43253986341761
IRIDIUM 118             
1 42807U 17039E   23345.88077596  .00000239  00000+0  78210-4 0  9993
2 42807  86.3978  17.4093 0002153  93.8855 266.2587 14.34218280338325
IRIDIUM 117             
1 42808U 17039F   23345.89980138  .00000237  00000+0  77652-4 0  9997
2 42808  86.3977  17.3673 0002280  95.7785 264.3671 14.34218593338355
IRIDIUM 126             
1 42809U 17039G   23346.13447785  .00000243  00000+0  79740-4 0  9999
2 42809  86.3978  17.3056 0002289 101.1726 258.9727 14.34218420338370
IRIDIUM 124             
1 42810U 17039H   23345.90405141  .00000315  00000+0  87761-4 0  9997
2 42810  86.4476 314.1577 0002395  81.8622 278.2851 14.43270984342662
IRIDIUM 128             
1 42811U 17039J   23345.91591510  .00000244  00000+0  80139-4 0  9998
2 42811  86.3978  48.9137 0002201  96.6717 263.4729 14.34217083338361
IRIDIUM 121             
1 42812U 17039K   23345.87443193  .00000325  00000+0  10887-3 0  9999
2 42812  86.3979  17.4360 0002138  95.5524 264.5916 14.34217554338201
IRIDIUM 133             
1 42955U 17061A   23345.87785809  .00000237  00000+0  77459-4 0  9996
2 42955  86.3980  49.0249 0002196 100.8066 259.3377 14.34218636323156
IRIDIUM 100             
1 42956U 17061B   23346.15058298  .00000242  00000+0  79291-4 0  9996
2 42956  86.3978  48.8513 0002285  95.9754 264.1702 14.34220062323211
IRIDIUM 122             
1 42957U 17061C   23346.11887472  .00000220  00000+0  71426-4 0  9995
2 42957  86.3979  48.8621 0002340  97.8357 262.3105 14.34217255323199
IRIDIUM 129             
1 42958U 17061D   23345.58608698  .00000076  00000+0  20179-4 0  9995
2 42958  86.3977  49.1421 0002470  78.5736 281.5737 14.34216995323139
IRIDIUM 119             
1 42959U 17061E   23346.18229893  .00000240  00000+0  78678-4 0  9999
2 42959  86.3980  48.8841 0002349  99.7997 260.3464 14.34219522323237
IRIDIUM 107             
1 42960U 17061F   23346.13155991  .00000232  00000+0  75675-4 0  9998
2 42960  86.3981  48.9213 0002451  93.7673 266.3803 14.34218496323246
IRIDIUM 132             
1 42961U 17061G   23346.13789745  .00000237  00000+0  77654-4 0  9993
2 42961  86.3980  48.9041 0002451  94.2613 265.8863 14.34218826323231
IRIDIUM 136             
1 42962U 17061H   23345.68123656  .00000268  00000+0  88585-4 0  9995
2 42962  86.3981  49.0974 0002156 103.9161 256.2274 14.34219026323185
IRIDIUM 139             
1 42963U 17061J   23345.68758324  .00000263  00000+0  86966-4 0  9998
2 42963  86.3982  49.1422 0002387  94.6106 265.5363 14.34218323323199
IRIDIUM 125             
1 42964U 17061K   23345.60510305  .00000259  00000+0  85279-4 0  9997
2 42964  86.3983  49.2209 0002552 101.0393 259.1090 14.34225151323193
IRIDIUM 135             
1 43070U 17083A   23346.06764003  .00000220  00000+0  71459-4 0  9990
2 43070  86.3962 345.7341 0002130  83.8741 276.2697 14.34214717312553
IRIDIUM 138             
1 43071U 17083B   23345.95347080  .00000245  00000+0  80559-4 0  9998
2 43071  86.3951 345.5229 0002406  96.8775 263.2695 14.34217859312523
IRIDIUM 116             
1 43072U 17083C   23346.13104940  .00000197  00000+0  63395-4 0  9991
2 43072  86.3962 345.7041 0002115  85.3629 274.7809 14.34216668312585
IRIDIUM 130             
1 43073U 17083D   23345.95982412  .00000240  00000+0  78777-4 0  9998
2 43073  86.3969 345.9623 0002321  90.2861 269.8601 14.34213893312507
IRIDIUM 151             
1 43074U 17083E   23345.93444926  .00000233  00000+0  76080-4 0  9997
2 43074  86.3962 345.8239 0001975  95.7016 264.4405 14.34214679312527
IRIDIUM 134             
1 43075U 17083F   23345.62366207  .00000271  00000+0  89649-4 0  9996
2 43075  86.3963 345.9489 0002363  88.4867 271.6600 14.34214574312444
IRIDIUM 137             
1 43076U 17083G   23345.91542273  .00000228  00000+0  74258-4 0  9990
2 43076  86.3966 345.9016 0001900  84.6485 275.4927 14.34214713312555
IRIDIUM 141             
1 43077U 17083H   23346.04860768  .00000243  00000+0  79855-4 0  9993
2 43077  86.3962 345.7284 0002165  95.2304 264.9138 14.34218908312578
IRIDIUM 153             
1 43078U 17083J   23345.93102266  .00000248  00000+0  81560-4 0  9994
2 43078  86.3953 314.2290 0002310 100.2509 259.8948 14.34215756313664
IRIDIUM 131             
1 43079U 17083K   23345.54754649  .00000275  00000+0  91316-4 0  9990
2 43079  86.3966 346.0628 0002155  93.6625 266.4817 14.34215294312438
IRIDIUM 144             
1 43249U 18030A   23346.00712515  .00000208  00000+0  67320-4 0  9994
2 43249  86.3949 314.1497 0002273  84.8733 275.2722 14.34218249298553
IRIDIUM 149             
1 43250U 18030B   23345.94369892  .00000228  00000+0  74500-4 0  9994
2 43250  86.3949 314.1532 0002372  84.1355 276.0112 14.34218983298544
IRIDIUM 157             
1 43251U 18030C   23345.89293979  .00000233  00000+0  76182-4 0  9995
2 43251  86.3951 314.2074 0002124  96.8152 263.3286 14.34223423298513
